CCSDS_OMM_VERS = 2.0
CREATION_DATE  = 
ORIGINATOR     = 

OBJECT_NAME    = SL-16 R/B
OBJECT_ID      = 1994-074B
CENTER_NAME    = EARTH
REF_FRAME      = TEME
TIME_SYSTEM    = UTC
MEAN_ELEMENT_THEORY = SGP/SGP4

EPOCH          = 2026-01-14T03:32:07.985760
MEAN_MOTION    = 14.79332320
ECCENTRICITY   = .00076103
INCLINATION    = 97.7173
RA_OF_ASC_NODE = 47.1591
ARG_OF_PERICENTER = 47.8553
MEAN_ANOMALY   = 40.2611

EPHEMERIS_TYPE = 0
CLASSIFICATION_TYPE = U
NORAD_CAT_ID   = 23343
ELEMENT_SET_NO = 999
REV_AT_EPOCH   = 67918
BSTAR          = .4953205E-4
MEAN_MOTION_DOT = .32E-5
MEAN_MOTION_DDOT = 0

CCSDS_OMM_VERS = 2.0
CREATION_DATE  = 
ORIGINATOR     = 

OBJECT_NAME    = SL-16 R/B
OBJECT_ID      = 1994-077B
CENTER_NAME    = EARTH
REF_FRAME      = TEME
TIME_SYSTEM    = UTC
MEAN_ELEMENT_THEORY = SGP/SGP4

EPOCH          = 2026-01-14T05:08:27.496032
MEAN_MOTION    = 14.15554614
ECCENTRICITY   = .00047862
INCLINATION    = 70.9835
RA_OF_ASC_NODE = 107.0975
ARG_OF_PERICENTER = 257.9388
MEAN_ANOMALY   = 102.1199

EPHEMERIS_TYPE = 0
CLASSIFICATION_TYPE = U
NORAD_CAT_ID   = 23405
ELEMENT_SET_NO = 999
REV_AT_EPOCH   = 60852
BSTAR          = .16548959E-3
MEAN_MOTION_DOT = .276E-5
MEAN_MOTION_DDOT = 0

CCSDS_OMM_VERS = 2.0
CREATION_DATE  = 
ORIGINATOR     = 

OBJECT_NAME    = ARIANE 40+ R/B
OBJECT_ID      = 1995-021B
CENTER_NAME    = EARTH
REF_FRAME      = TEME
TIME_SYSTEM    = UTC
MEAN_ELEMENT_THEORY = SGP/SGP4

EPOCH          = 2026-01-14T04:25:20.056224
MEAN_MOTION    = 14.39723826
ECCENTRICITY   = .00057862
INCLINATION    = 98.4605
RA_OF_ASC_NODE = 86.3752
ARG_OF_PERICENTER = 310.9888
MEAN_ANOMALY   = 67.7839

EPHEMERIS_TYPE = 0
CLASSIFICATION_TYPE = U
NORAD_CAT_ID   = 23561
ELEMENT_SET_NO = 999
REV_AT_EPOCH   = 61140
BSTAR          = .7677842E-4
MEAN_MOTION_DOT = .197E-5
MEAN_MOTION_DDOT = 0

CCSDS_OMM_VERS = 2.0
CREATION_DATE  = 
ORIGINATOR     = 

OBJECT_NAME    = SL-16 R/B
OBJECT_ID      = 1995-058B
CENTER_NAME    = EARTH
REF_FRAME      = TEME
TIME_SYSTEM    = UTC
MEAN_ELEMENT_THEORY = SGP/SGP4

EPOCH          = 2026-01-14T03:32:52.019520
MEAN_MOTION    = 14.15490091
ECCENTRICITY   = .00136859
INCLINATION    = 71.0228
RA_OF_ASC_NODE = 294.7645
ARG_OF_PERICENTER = 212.1735
MEAN_ANOMALY   = 147.8555

EPHEMERIS_TYPE = 0
CLASSIFICATION_TYPE = U
NORAD_CAT_ID   = 23705
ELEMENT_SET_NO = 999
REV_AT_EPOCH   = 56013
BSTAR          = .18847995E-4
MEAN_MOTION_DOT = -.11E-6
MEAN_MOTION_DDOT = 0

CCSDS_OMM_VERS = 2.0
CREATION_DATE  = 
ORIGINATOR     = 

OBJECT_NAME    = SL-16 R/B
OBJECT_ID      = 1996-051B
CENTER_NAME    = EARTH
REF_FRAME      = TEME
TIME_SYSTEM    = UTC
MEAN_ELEMENT_THEORY = SGP/SGP4

EPOCH          = 2026-01-14T03:18:08.401536
MEAN_MOTION    = 14.12400732
ECCENTRICITY   = .00190072
INCLINATION    = 70.7595
RA_OF_ASC_NODE = 290.7081
ARG_OF_PERICENTER = 221.4408
MEAN_ANOMALY   = 138.5271

EPHEMERIS_TYPE = 0
CLASSIFICATION_TYPE = U
NORAD_CAT_ID   = 24298
ELEMENT_SET_NO = 999
REV_AT_EPOCH   = 51394
BSTAR          = .25856635E-4
MEAN_MOTION_DOT = -.2E-7
MEAN_MOTION_DDOT = 0

CCSDS_OMM_VERS = 2.0
CREATION_DATE  = 
ORIGINATOR     = 

OBJECT_NAME    = ORBVIEW 2 (SEASTAR)
OBJECT_ID      = 1997-037A
CENTER_NAME    = EARTH
REF_FRAME      = TEME
TIME_SYSTEM    = UTC
MEAN_ELEMENT_THEORY = SGP/SGP4

EPOCH          = 2026-01-14T01:11:07.339200
MEAN_MOTION    = 14.35444801
ECCENTRICITY   = .0001781
INCLINATION    = 98.8479
RA_OF_ASC_NODE = 176.9421
ARG_OF_PERICENTER = 196.6591
MEAN_ANOMALY   = 163.4535

EPHEMERIS_TYPE = 0
CLASSIFICATION_TYPE = U
NORAD_CAT_ID   = 24883
ELEMENT_SET_NO = 999
REV_AT_EPOCH   = 50063
BSTAR          = .86654469E-4
MEAN_MOTION_DOT = .202E-5
MEAN_MOTION_DDOT = 0

CCSDS_OMM_VERS = 2.0
CREATION_DATE  = 
ORIGINATOR     = 

OBJECT_NAME    = SL-16 R/B
OBJECT_ID      = 1998-043G
CENTER_NAME    = EARTH
REF_FRAME      = TEME
TIME_SYSTEM    = UTC
MEAN_ELEMENT_THEORY = SGP/SGP4

EPOCH          = 2026-01-13T19:02:27.220704
MEAN_MOTION    = 14.26034350
ECCENTRICITY   = .00099702
INCLINATION    = 98.8166
RA_OF_ASC_NODE = 326.7981
ARG_OF_PERICENTER = 167.6879
MEAN_ANOMALY   = 192.4546

EPHEMERIS_TYPE = 0
CLASSIFICATION_TYPE = U
NORAD_CAT_ID   = 25400
ELEMENT_SET_NO = 999
REV_AT_EPOCH   = 43116
BSTAR          = .35483822E-4
MEAN_MOTION_DOT = .4E-6
MEAN_MOTION_DDOT = 0

CCSDS_OMM_VERS = 2.0
CREATION_DATE  = 
ORIGINATOR     = 

OBJECT_NAME    = SL-16 R/B
OBJECT_ID      = 1998-045B
CENTER_NAME    = EARTH
REF_FRAME      = TEME
TIME_SYSTEM    = UTC
MEAN_ELEMENT_THEORY = SGP/SGP4

EPOCH          = 2026-01-14T04:27:14.241600
MEAN_MOTION    = 14.16180104
ECCENTRICITY   = .00053271
INCLINATION    = 71.0120
RA_OF_ASC_NODE = 296.1945
ARG_OF_PERICENTER = 117.3378
MEAN_ANOMALY   = 242.8288

EPHEMERIS_TYPE = 0
CLASSIFICATION_TYPE = U
NORAD_CAT_ID   = 25407
ELEMENT_SET_NO = 999
REV_AT_EPOCH   = 41938
BSTAR          = .43260481E-4
MEAN_MOTION_DOT = .38E-6
MEAN_MOTION_DDOT = 0

CCSDS_OMM_VERS = 2.0
CREATION_DATE  = 
ORIGINATOR     = 

OBJECT_NAME    = ISS (ZARYA)
OBJECT_ID      = 1998-067A
CENTER_NAME    = EARTH
REF_FRAME      = TEME
TIME_SYSTEM    = UTC
MEAN_ELEMENT_THEORY = SGP/SGP4

EPOCH          = 2026-01-14T04:14:12.571296
MEAN_MOTION    = 15.49283642
ECCENTRICITY   = .00077627
INCLINATION    = 51.6332
RA_OF_ASC_NODE = 341.8911
ARG_OF_PERICENTER = 16.2553
MEAN_ANOMALY   = 343.8684

EPHEMERIS_TYPE = 0
CLASSIFICATION_TYPE = U
NORAD_CAT_ID   = 25544
ELEMENT_SET_NO = 999
REV_AT_EPOCH   = 54788
BSTAR          = .14457162E-3
MEAN_MOTION_DOT = .7605E-4
MEAN_MOTION_DDOT = 0

CCSDS_OMM_VERS = 2.0
CREATION_DATE  = 
ORIGINATOR     = 

OBJECT_NAME    = CZ-4B R/B
OBJECT_ID      = 1999-025C
CENTER_NAME    = EARTH
REF_FRAME      = TEME
TIME_SYSTEM    = UTC
MEAN_ELEMENT_THEORY = SGP/SGP4

EPOCH          = 2026-01-14T03:09:50.598432
MEAN_MOTION    = 14.18252132
ECCENTRICITY   = .00378301
INCLINATION    = 98.6726
RA_OF_ASC_NODE = 59.6803
ARG_OF_PERICENTER = 140.7125
MEAN_ANOMALY   = 283.1612

EPHEMERIS_TYPE = 0
CLASSIFICATION_TYPE = U
NORAD_CAT_ID   = 25732
ELEMENT_SET_NO = 999
REV_AT_EPOCH   = 38043
BSTAR          = .30563155E-4
MEAN_MOTION_DOT = .2E-6
MEAN_MOTION_DDOT = 0

CCSDS_OMM_VERS = 2.0
CREATION_DATE  = 
ORIGINATOR     = 

OBJECT_NAME    = OKEAN-O
OBJECT_ID      = 1999-039A
CENTER_NAME    = EARTH
REF_FRAME      = TEME
TIME_SYSTEM    = UTC
MEAN_ELEMENT_THEORY = SGP/SGP4

EPOCH          = 2026-01-14T02:27:18.902304
MEAN_MOTION    = 14.80225921
ECCENTRICITY   = .00016694
INCLINATION    = 97.9555
RA_OF_ASC_NODE = 74.5173
ARG_OF_PERICENTER = 108.5363
MEAN_ANOMALY   = 251.6030

EPHEMERIS_TYPE = 0
CLASSIFICATION_TYPE = U
NORAD_CAT_ID   = 25860
ELEMENT_SET_NO = 999
REV_AT_EPOCH   = 42631
BSTAR          = .77135676E-4
MEAN_MOTION_DOT = .534E-5
MEAN_MOTION_DDOT = 0

CCSDS_OMM_VERS = 2.0
CREATION_DATE  = 
ORIGINATOR     = 

OBJECT_NAME    = SL-16 R/B
OBJECT_ID      = 1999-039B
CENTER_NAME    = EARTH
REF_FRAME      = TEME
TIME_SYSTEM    = UTC
MEAN_ELEMENT_THEORY = SGP/SGP4

EPOCH          = 2026-01-14T03:12:51.405120
MEAN_MOTION    = 14.81640293
ECCENTRICITY   = .00161258
INCLINATION    = 98.0079
RA_OF_ASC_NODE = 73.2801
ARG_OF_PERICENTER = 76.0242
MEAN_ANOMALY   = 284.2762

EPHEMERIS_TYPE = 0
CLASSIFICATION_TYPE = U
NORAD_CAT_ID   = 25861
ELEMENT_SET_NO = 999
REV_AT_EPOCH   = 42878
BSTAR          = .58747713E-4
MEAN_MOTION_DOT = .409E-5
MEAN_MOTION_DDOT = 0

CCSDS_OMM_VERS = 2.0
CREATION_DATE  = 
ORIGINATOR     = 

OBJECT_NAME    = DELTA 2 R/B
OBJECT_ID      = 1999-041E
CENTER_NAME    = EARTH
REF_FRAME      = TEME
TIME_SYSTEM    = UTC
MEAN_ELEMENT_THEORY = SGP/SGP4

EPOCH          = 2026-01-13T17:13:04.401984
MEAN_MOTION    = 14.11545038
ECCENTRICITY   = .05036717
INCLINATION    = 51.7608
RA_OF_ASC_NODE = 160.7840
ARG_OF_PERICENTER = 186.0314
MEAN_ANOMALY   = 173.4399

EPHEMERIS_TYPE = 0
CLASSIFICATION_TYPE = U
NORAD_CAT_ID   = 25876
ELEMENT_SET_NO = 999
REV_AT_EPOCH   = 35526
BSTAR          = .42641074E-3
MEAN_MOTION_DOT = .2417E-4
MEAN_MOTION_DDOT = 0

CCSDS_OMM_VERS = 2.0
CREATION_DATE  = 
ORIGINATOR     = 

OBJECT_NAME    = HELIOS 1B
OBJECT_ID      = 1999-064A
CENTER_NAME    = EARTH
REF_FRAME      = TEME
TIME_SYSTEM    = UTC
MEAN_ELEMENT_THEORY = SGP/SGP4

EPOCH          = 2026-01-14T03:53:50.388000
MEAN_MOTION    = 14.87435688
ECCENTRICITY   = .00005433
INCLINATION    = 98.1747
RA_OF_ASC_NODE = 274.7914
ARG_OF_PERICENTER = 133.3283
MEAN_ANOMALY   = 226.7978

EPHEMERIS_TYPE = 0
CLASSIFICATION_TYPE = U
NORAD_CAT_ID   = 25977
ELEMENT_SET_NO = 999
REV_AT_EPOCH   = 67715
BSTAR          = .1501802E-3
MEAN_MOTION_DOT = .1301E-4
MEAN_MOTION_DDOT = 0

CCSDS_OMM_VERS = 2.0
CREATION_DATE  = 
ORIGINATOR     = 

OBJECT_NAME    = TERRA
OBJECT_ID      = 1999-068A
CENTER_NAME    = EARTH
REF_FRAME      = TEME
TIME_SYSTEM    = UTC
MEAN_ELEMENT_THEORY = SGP/SGP4

EPOCH          = 2026-01-14T02:56:51.609984
MEAN_MOTION    = 14.60943523
ECCENTRICITY   = .00024252
INCLINATION    = 97.9702
RA_OF_ASC_NODE = 69.6115
ARG_OF_PERICENTER = 26.1225
MEAN_ANOMALY   = 355.7821

EPHEMERIS_TYPE = 0
CLASSIFICATION_TYPE = U
NORAD_CAT_ID   = 25994
ELEMENT_SET_NO = 999
REV_AT_EPOCH   = 38711
BSTAR          = .73221702E-4
MEAN_MOTION_DOT = .314E-5
MEAN_MOTION_DDOT = 0

